OBJECT_NAME,OBJECT_ID,EPOCH,MEAN_MOTION,ECCENTRICITY,INCLINATION,RA_OF_ASC_NODE,ARG_OF_PERICENTER,MEAN_ANOMALY,EPHEMERIS_TYPE,CLASSIFICATION_TYPE,NORAD_CAT_ID,ELEMENT_SET_NO,REV_AT_EPOCH,BSTAR,MEAN_MOTION_DOT,MEAN_MOTION_DDOT
AEROCUBE 8D,2016-067E,2024-12-31T23:18:03.563712,15.13563753,.0004699,98.1099,187.8853,147.5362,212.6157,0,U,41852,999,44525,.10781E-2,.19303E-3,0
AEROCUBE 8C,2016-067F,2024-12-31T23:39:16.751520,15.13605960,.0007736,98.0924,186.0144,88.2242,271.9874,0,U,41853,999,44524,.11153E-2,.20007E-3,0
PROMETHEUS 2-1,2016-067G,2025-01-01T00:24:11.695392,15.31633024,.0009739,98.0906,197.7067,89.4729,270.7626,0,U,41854,999,44585,.20683E-2,.63644E-3,0
PROMETHEUS 2-3,2016-067H,2024-12-31T19:48:39.202272,15.31528932,.0008182,98.0849,196.7966,99.6205,260.5959,0,U,41855,999,44582,.20593E-2,.63132E-3,0
CORVUS BC2,2017-042X,2024-12-31T10:07:35.731776,15.00873902,.0013425,97.3662,180.9862,110.3745,249.8924,0,U,42846,999,40699,.7389E-3,.9369E-4,0
CORVUS BC1,2017-042Y,2024-12-31T18:19:03.713952,15.01029535,.0013072,97.3674,181.7302,84.7975,275.4742,0,U,42847,999,40706,.76257E-3,.971E-4,0
MIRATA,2017-073C,2024-12-31T22:38:49.083360,15.26297049,.0123747,97.5652,251.3403,297.6152,61.2565,0,U,43015,999,38628,.24925E-2,.81516E-3,0
MAKERSAT 0,2017-073D,2025-01-01T03:08:34.799712,15.08009229,.0166325,97.5430,241.4206,330.3505,28.8371,0,U,43016,999,38563,.18803E-2,.40037E-3,0
SIRION PATHFINDER-2,2018-099B,2024-12-31T20:41:40.368192,15.07018640,.0009672,97.5032,57.7084,342.6747,17.4149,0,U,43759,999,33223,.86662E-3,.12949E-3,0
CORVUS BC4,2018-099K,2025-01-01T01:57:24.169536,15.05843220,.0010443,97.4856,54.4393,37.1114,323.0833,0,U,43767,999,33213,.87524E-3,.12672E-3,0
MOVE-II,2018-099Y,2024-12-31T20:22:44.581440,15.35518885,.0004675,97.4927,70.1175,14.1524,345.9850,0,U,43780,999,33303,.25418E-2,.886E-3,0
SPACEBEE-7,2018-099BL,2024-12-31T10:39:38.346048,15.23725504,.0007126,97.5222,68.9892,329.6493,30.4330,0,U,43816,999,33231,.16453E-2,.39658E-3,0
SPACEBEE-6,2018-099BN,2025-01-01T04:25:06.614112,15.86497495,.0007754,97.4973,82.2169,297.5781,62.4701,0,U,43818,999,33340,.42928E-2,.1206572E-1,0
SHIELDS 1,2018-104B,2024-12-31T18:36:49.996224,15.48903673,.0009781,85.0201,148.0045,45.8425,314.3634,0,U,43850,999,33662,.75666E-3,.41035E-3,0
SONATE,2019-038Q,2025-01-01T01:51:34.412832,15.52589744,.0013798,97.7116,12.4352,109.9736,250.3003,0,U,44400,999,30457,.12865E-2,.79927E-3,0
DUCHIFAT-3,2019-089C,2024-12-31T21:09:50.194944,15.30078326,.0012599,36.9504,277.8154,303.1274,56.8268,0,U,44854,999,27841,.18527E-2,.55699E-3,0
M2 PATHFINDER,2020-037E,2024-12-31T10:33:44.747136,15.00051406,.0011662,97.7772,182.3437,161.3691,198.7961,0,U,45727,999,24548,.73378E-3,.9096E-4,0
NETSAT-4,2020-068U,2024-12-31T20:33:19.238688,15.23283557,.0010504,97.8296,330.6897,48.3444,311.8689,0,U,46504,999,23417,.1259E-2,.29917E-3,0
NETSAT-3,2020-068V,2024-12-31T15:50:59.659008,15.22447064,.0010117,97.8283,329.7400,57.3725,302.8485,0,U,46505,999,23412,.11768E-2,.27264E-3,0
NETSAT-1,2020-068W,2024-12-31T08:31:32.784384,15.19202450,.0009476,97.8304,328.2272,68.4610,291.7633,0,U,46506,999,23399,.8692E-3,.18274E-3,0
NETSAT-2,2020-068X,2024-12-31T21:10:25.510944,15.23114876,.0008707,97.8284,330.2877,70.4644,289.7531,0,U,46507,999,23412,.11971E-2,.28282E-3,0
WILDTRACKCUBE-SIMBA,2021-022K,2025-01-01T03:03:50.437440,15.33297865,.0012377,97.4404,263.3477,154.2658,205.9202,0,U,47941,999,20866,.1446E-2,.46787E-3,0
GRBALPHA,2021-022AD,2025-01-01T03:21:35.540352,15.45697971,.0010713,97.4392,267.4165,132.5483,227.6672,0,U,47959,999,20775,.20857E-2,.101987E-2,0
BEESAT-8,2021-022AP,2024-12-30T17:18:46.450944,15.73466822,.0011434,97.4765,273.5903,103.2949,256.9590,0,U,48085,999,20823,.29596E-2,.432562E-2,0
LEDSAT,2021-073D,2024-12-31T16:14:15.566784,15.39837446,.0013308,97.4135,78.0819,302.7865,57.2098,0,U,49069,999,18667,.14512E-2,.58039E-3,0
ROBUSTA-1F (MTCUBE 2),2022-080E,2024-12-30T08:26:30.346368,6.42584036,.000838,70.1231,123.9128,45.3679,314.7663,0,U,53109,999,5776,0,-.3E-7,0
SITRO-AIS 5 (KATYS),2023-091L,2025-01-01T02:44:48.308064,15.14906270,.0016014,97.5846,58.1287,158.3186,201.8727,0,U,57176,999,8339,.12778E-2,.23862E-3,0
SITRO-AIS 6 (CHIRKIN),2023-091AC,2025-01-01T02:16:33.552192,15.14910196,.0015921,97.5848,58.1393,157.8817,202.3105,0,U,57192,999,8339,.1123E-2,.20956E-3,0
SITRO-AIS 8 (ANOKHIN),2023-091AD,2025-01-01T02:58:21.462528,15.15759410,.0015486,97.5843,58.3960,158.1278,202.0618,0,U,57193,999,8341,.13444E-2,.25724E-3,0
SITRO-AIS 7 (FARTUSHNIY),2023-091AE,2025-01-01T01:01:46.642080,15.14813079,.0015775,97.5845,58.0459,158.8210,201.3678,0,U,57194,999,8338,.1205E-2,.22433E-3,0
